OBJECT_NAME,OBJECT_ID,EPOCH,MEAN_MOTION,ECCENTRICITY,INCLINATION,RA_OF_ASC_NODE,ARG_OF_PERICENTER,MEAN_ANOMALY,EPHEMERIS_TYPE,CLASSIFICATION_TYPE,NORAD_CAT_ID,ELEMENT_SET_NO,REV_AT_EPOCH,BSTAR,MEAN_MOTION_DOT,MEAN_MOTION_DDOT
STARLINK-36907,2026-037J,2026-03-21T12:00:00.999648,15.65127306,.00011378,42.9999,126.3984,274.2801,303.0024,0,U,67940,999,509,-.20961346E-1,-.1886619E-1,0
STARLINK-36927,2026-037K,2026-03-21T12:00:00.999648,15.62328461,.00009564,42.9993,126.4863,282.2372,259.4903,0,U,67941,999,509,-.23501352E-1,-.1890977E-1,0
STARLINK-36914,2026-037L,2026-03-21T12:00:00.999648,15.69306248,.00011849,42.9995,126.2876,275.5189,346.3457,0,U,67942,999,509,-.17693186E-1,-.1890565E-1,0
STARLINK-36851,2026-037M,2026-03-21T12:00:00.999648,15.63313509,.00010138,42.9994,126.4781,277.4864,267.7270,0,U,67943,999,509,-.22560148E-1,-.1887907E-1,0
STARLINK-36892,2026-037N,2026-03-21T12:00:00.999648,15.64115973,.00010242,42.9993,126.4257,275.7415,290.6735,0,U,67944,999,509,-.21840239E-1,-.1887229E-1,0
STARLINK-36908,2026-037P,2026-03-21T12:00:00.999648,15.64950290,.00010481,42.9995,126.3723,275.2437,312.3381,0,U,67945,999,509,-.20997854E-1,-.1877549E-1,0
STARLINK-36909,2026-037Q,2026-03-21T12:00:00.999648,15.71419164,.00013249,42.9993,126.1695,277.2598,31.4677,0,U,67946,999,509,-.16020379E-1,-.1837657E-1,0
STARLINK-36920,2026-037R,2026-03-21T12:00:00.999648,15.60259754,.00009773,42.9991,126.5448,283.9806,233.8975,0,U,67947,999,509,-.25149496E-1,-.1869152E-1,0
STARLINK-36873,2026-037S,2026-03-21T12:00:00.999648,15.59016697,.00009997,42.9992,126.5926,293.9296,204.2470,0,U,67948,999,509,-.26421633E-1,-.1871454E-1,0
STARLINK-36863,2026-037T,2026-03-21T12:00:00.999648,15.63583775,.00011416,42.9995,126.3814,276.7991,306.9700,0,U,67949,999,509,-.22251374E-1,-.1882947E-1,0
STARLINK-36887,2026-037U,2026-03-21T12:00:00.999648,15.50576308,.00012845,42.9994,127.1335,295.3566,344.7954,0,U,67950,999,509,-.93948972E-3,-.55065E-3,0
STARLINK-36897,2026-037V,2026-03-21T12:00:00.999648,15.62562442,.00010953,42.9996,126.4009,276.8195,298.8237,0,U,67951,999,509,-.23157101E-1,-.1881853E-1,0
STARLINK-36381,2026-037W,2026-03-21T12:00:00.999648,15.61055448,.00009884,42.9996,126.4439,291.4043,266.9292,0,U,67952,999,509,-.24048473E-1,-.1846415E-1,0
STARLINK-36824,2026-037X,2026-03-21T12:00:00.999648,15.51313760,.00010301,42.9995,126.9757,280.1706,63.9472,0,U,67953,999,509,-.19323735E-1,-.1056846E-1,0
STARLINK-36869,2026-037Y,2026-03-21T12:00:00.999648,15.50943390,.00011704,42.9994,126.9662,305.5324,41.6447,0,U,67954,999,509,-.11369449E-1,-.624685E-2,0
STARLINK-36872,2026-037Z,2026-03-21T12:00:00.999648,15.64832455,.00012797,42.9994,126.2567,271.1941,1.5743,0,U,67955,999,509,-.21208893E-1,-.1886462E-1,0
STARLINK-36918,2026-037AA,2026-03-21T12:00:00.999648,15.61411448,.0001123,42.9993,126.3849,275.2061,306.2418,0,U,67956,999,509,-.24257972E-1,-.1883824E-1,0
STARLINK-36829,2026-037AB,2026-03-21T12:00:00.999648,15.57997747,.00011112,42.9995,126.5689,288.8355,218.8340,0,U,67957,999,509,-.2710864E-1,-.1849634E-1,0
STARLINK-36799,2026-037AC,2026-03-21T12:00:00.999648,15.67297976,.000134,42.9992,126.1520,277.3501,37.8078,0,U,67958,999,509,-.19105702E-1,-.1879714E-1,0
STARLINK-36834,2026-037AD,2026-03-21T12:00:00.999648,15.57776386,.00012126,42.9993,126.5261,290.1976,234.3136,0,U,67959,999,509,-.27313765E-1,-.1848249E-1,0
STARLINK-36841,2026-037AE,2026-03-21T12:00:00.999648,15.58755152,.00010442,42.9996,126.4866,283.8896,256.3052,0,U,67960,999,509,-.26343771E-1,-.1850095E-1,0
STARLINK-36912,2026-038A,2026-03-21T12:00:00.999648,15.53334275,.00018575,97.2853,91.3182,97.6371,171.5706,0,U,67961,999,510,-.3992282E-1,-.2222639E-1,0
STARLINK-36881,2026-038B,2026-03-21T12:00:00.999648,15.53701500,.00020121,97.2858,91.3239,100.8216,180.1443,0,U,67962,999,510,-.39112962E-1,-.2208861E-1,0
STARLINK-36357,2026-038C,2026-03-21T12:00:00.999648,15.49095686,.00011107,97.2850,91.2905,96.3832,106.2021,0,U,67963,999,510,.23739807E-2,.130762E-2,0
STARLINK-36349,2026-038D,2026-03-21T12:00:00.999648,15.49120059,.00010059,97.2850,91.2872,115.4496,79.9302,0,U,67964,999,510,.2373939E-2,.130873E-2,0
STARLINK-36806,2026-038E,2026-03-21T12:00:00.999648,15.54612571,.00018883,97.2851,91.3376,114.7383,197.7868,0,U,67965,999,510,-.37871892E-1,-.221101E-1,0
STARLINK-36820,2026-038F,2026-03-21T12:00:00.999648,15.55028919,.00015684,97.2852,91.3398,101.0575,222.8781,0,U,67966,999,510,-.38907692E-1,-.2294828E-1,0
STARLINK-36819,2026-038G,2026-03-21T12:00:00.999648,15.49232589,.00015062,97.2858,91.1862,90.8924,228.8440,0,U,67967,999,510,-.21863478E-2,-.117427E-2,0
STARLINK-36812,2026-038H,2026-03-21T12:00:00.999648,15.55418006,.00013974,97.2853,91.3474,103.2941,238.2536,0,U,67968,999,510,-.38175563E-1,-.2285402E-1,0
